     3.04           N: GNSS NAV DATA    G: GPS              RINEX VERSION / TYPE
CHC Navigation      CHC Navigation      20230628 133753 UTC PGM / RUN BY / DATE 
    18                                                      LEAP SECONDS        
                                                            END OF HEADER       
G05 2023 06 20 12 00 00-1.318240538239D-04-1.477928890381D-12 0.000000000000D+00
     8.000000000000D+01-1.221562500000D+02 4.106956785521D-09 2.220794563796D+00
    -6.517395377159D-06 6.019471911713D-03 5.871057510376D-06 5.153692741394D+03
     2.160000000000D+05 5.774199962616D-08 2.877380181931D+00-9.872019290924D-08
     9.667155465771D-01 2.702500000000D+02 1.162645475708D+00-7.880685405037D-09
    -2.042942239602D-10 0.000000000000D+00 2.267000000000D+03 0.000000000000D+00
     0.000000000000D+00 0.000000000000D+00-1.117587089539D-08 8.000000000000D+01
     2.160000000000D+05 0.000000000000D+00                                      
G13 2023 06 20 12 00 00 5.365246906877D-04 5.115907697473D-12 0.000000000000D+00
     4.100000000000D+01-1.418750000000D+01 4.151958660029D-09 1.446890635523D+00
    -7.934868335724D-07 7.073038257658D-03 9.207054972649D-06 5.153671163559D+03
     2.160000000000D+05-1.192092895508D-07-2.174868625014D+00-1.490116119385D-08
     9.697550031941D-01 2.058750000000D+02 9.082436896410D-01-7.778181135322D-09
     5.435940714464D-10 0.000000000000D+00 2.267000000000D+03 0.000000000000D+00
     0.000000000000D+00 0.000000000000D+00-1.117587089539D-08 4.100000000000D+01
     2.160000000000D+05 0.000000000000D+00                                      
G15 2023 06 20 11 59 44 5.058757960796D-05 3.524291969370D-12 0.000000000000D+00
     4.000000000000D+00-3.803125000000D+01 4.915919053475D-09 8.549016573541D-01
    -1.970678567886D-06 1.499900431372D-02 1.013465225697D-05 5.153741979599D+03
     2.159840000000D+05-2.197921276093D-07-2.454493043967D+00-8.195638656616D-08
     9.327033961202D-01 1.744062500000D+02 1.205130953010D+00-8.282487856007D-09
     3.403713206889D-10 0.000000000000D+00 2.267000000000D+03 0.000000000000D+00
     0.000000000000D+00 0.000000000000D+00-1.071020960808D-08 4.000000000000D+00
     2.159840000000D+05 0.000000000000D+00                                      
G18 2023 06 20 12 00 00-3.149150870740D-04-1.489297574153D-11 0.000000000000D+00
     6.900000000000D+01 5.750000000000D+00 4.373396455231D-09-1.924800625501D-01
     4.842877388000D-08 3.330853069201D-03 4.265457391739D-07 5.153670541763D+03
     2.160000000000D+05 5.029141902924D-08 1.894483721263D+00-2.980232238770D-08
     9.737191951986D-01 3.790625000000D+02 3.123616730238D+00-8.303917320059D-09
    -1.771502361613D-10 0.000000000000D+00 2.267000000000D+03 0.000000000000D+00
     0.000000000000D+00 0.000000000000D+00-8.381903171539D-09 6.900000000000D+01
     2.160000000000D+05 0.000000000000D+00                                      
G20 2023 06 20 12 00 00 4.269978962839D-04-2.046363078989D-12 0.000000000000D+00
     5.200000000000D+01-1.088750000000D+02 4.575904890520D-09 4.554477869542D-01
    -5.677342414856D-06 4.033435252495D-03 4.593282938004D-06 5.153572002411D+03
     2.160000000000D+05 8.009374141693D-08 2.754575917292D+00 1.005828380585D-07
     9.491649022880D-01 2.853437500000D+02-2.877830779718D+00-8.244986293917D-09
    -2.189376910622D-10 0.000000000000D+00 2.267000000000D+03 0.000000000000D+00
     0.000000000000D+00 0.000000000000D+00-8.381903171539D-09 5.200000000000D+01
     2.160000000000D+05 0.000000000000D+00                                      
G23 2023 06 20 12 00 00 3.500701859593D-05 3.751665644813D-12 0.000000000000D+00
     1.220000000000D+02-1.302187500000D+02 3.841945746747D-09-1.237880097532D+00
    -6.677582859993D-06 3.255293820985D-03 6.580725312233D-06 5.153667020798D+03
     2.160000000000D+05-5.774199962616D-08 2.894301047302D+00-1.415610313416D-07
     9.745630794926D-01 2.630312500000D+02-3.102198683530D+00-7.751394305258D-09
    -2.207234797332D-10 0.000000000000D+00 2.267000000000D+03 0.000000000000D+00
     0.000000000000D+00 0.000000000000D+00-8.381903171539D-09 3.780000000000D+02
     2.160000000000D+05 0.000000000000D+00                                      
G24 2023 06 20 12 00 00-2.312250435352D-04-1.296029950026D-11 0.000000000000D+00
     5.000000000000D+01 5.843750000000D+00 5.611662319689D-09-5.785764492886D-02
     3.688037395477D-07 1.395412895363D-02 5.282461643219D-06 5.153637338638D+03
     2.160000000000D+05-9.313225746155D-09-1.354536921465D+00 2.011656761169D-07
     9.334473455544D-01 2.684062500000D+02 8.969364330027D-01-8.655360530508D-09
     2.403671551140D-10 0.000000000000D+00 2.267000000000D+03 0.000000000000D+00
     0.000000000000D+00 0.000000000000D+00 2.793967723846D-09 5.000000000000D+01
     2.160000000000D+05 0.000000000000D+00                                      
G29 2023 06 20 12 00 00-6.033731624484D-04-1.136868377216D-12 0.000000000000D+00
     1.100000000000D+01 1.258437500000D+02 4.120885937154D-09 1.868833344296D+00
     6.631016731262D-06 2.607405418530D-03 6.401911377907D-06 5.153757854462D+03
     2.160000000000D+05 6.705522537231D-08 9.043208382385D-01-6.891787052155D-08
     9.762718190114D-01 2.600937500000D+02 2.433263873150D+00-7.842112369743D-09
    -2.678683006471D-11 0.000000000000D+00 2.267000000000D+03 0.000000000000D+00
     0.000000000000D+00 0.000000000000D+00-1.024454832077D-08 1.100000000000D+01
     2.160000000000D+05 0.000000000000D+00                                      
G10 2023 06 20 12 00 00-4.193140193820D-05-1.591615728103D-12 0.000000000000D+00
     7.400000000000D+01-1.330312500000D+02 3.683367712764D-09-2.462833764603D+00
    -6.826594471931D-06 8.533415268175D-03 6.586313247681D-06 5.153694036484D+03
     2.160000000000D+05-2.421438694000D-08 2.921608879731D+00-6.146728992462D-08
     9.794413085647D-01 2.609687500000D+02-2.434790185321D+00-7.593173429009D-09
    -1.325055193867D-10 0.000000000000D+00 2.267000000000D+03 0.000000000000D+00
     0.000000000000D+00 0.000000000000D+00 2.328306436539D-09 7.400000000000D+01
     2.160000000000D+05 0.000000000000D+00                                      
G18 2023 06 20 13 29 36-3.149947151542D-04-1.489297574153D-11 0.000000000000D+00
     7.000000000000D+01 6.093750000000D+00 4.463043046514D-09 5.916506593448D-01
     1.899898052216D-07 3.330660518259D-03 1.806765794754D-07 5.153670196533D+03
     2.213760000000D+05 3.352761268616D-08 1.894439056911D+00-2.607703208923D-08
     9.737181872481D-01 3.774687500000D+02 3.123622135720D+00-8.314989209819D-09
    -1.778645516297D-10 0.000000000000D+00 2.267000000000D+03 0.000000000000D+00
     0.000000000000D+00 0.000000000000D+00-8.381903171539D-09 7.000000000000D+01
     2.213760000000D+05 0.000000000000D+00                                      
G12 2023 06 20 12 00 00-3.908914513886D-04-4.661160346586D-12 0.000000000000D+00
     4.100000000000D+01 2.712500000000D+01 4.434113270044D-09-1.744643956635D+00
     1.598149538040D-06 8.735575014725D-03 9.246170520782D-06 5.153590026855D+03
     2.160000000000D+05 1.545995473862D-07-1.486715689505D-01 1.657754182816D-07
     9.655243699198D-01 2.043125000000D+02 1.380964340536D+00-7.652818770620D-09
    -3.907305612105D-10 0.000000000000D+00 2.267000000000D+03 0.000000000000D+00
     0.000000000000D+00 0.000000000000D+00-1.257285475731D-08 4.100000000000D+01
     2.160000000000D+05 0.000000000000D+00                                      
